OBJECT_NAME,OBJECT_ID,EPOCH,MEAN_MOTION,ECCENTRICITY,INCLINATION,RA_OF_ASC_NODE,ARG_OF_PERICENTER,MEAN_ANOMALY,EPHEMERIS_TYPE,CLASSIFICATION_TYPE,NORAD_CAT_ID,ELEMENT_SET_NO,REV_AT_EPOCH,BSTAR,MEAN_MOTION_DOT,MEAN_MOTION_DDOT
STARLINK-3671,2022-025S,2024-11-28T15:59:20.137920,15.06397244,.0002384,53.0558,322.9445,93.7363,266.3898,0,U,51972,999,15068,-.3063E-5,-.328E-5,0
STARLINK-3679,2022-025T,2024-11-28T16:09:55.068192,15.06403442,.0001563,53.0540,322.8514,116.4854,243.6295,0,U,51973,999,15068,-.23692E-4,-.634E-5,0
STARLINK-3672,2022-025U,2024-11-28T06:20:46.369248,15.06398806,.0001756,53.0551,324.7468,95.2746,264.8443,0,U,51974,999,15170,.36188E-4,.257E-5,0
STARLINK-3674,2022-025V,2024-11-27T23:35:30.098400,15.06396159,.0001552,53.0543,321.6048,95.6079,264.5087,0,U,51975,999,15064,.30752E-4,.177E-5,0
STARLINK-3663,2022-025W,2024-11-28T09:22:59.170368,15.14994120,.000757,53.2142,330.7129,52.0886,308.0792,0,U,51976,999,15069,.21738E-2,.41012E-3,0
STARLINK-3660,2022-025X,2024-11-28T22:48:36.432288,15.08839012,.0001505,53.2155,309.9104,114.0069,246.1081,0,U,51977,999,15211,.15307E-3,.2149E-4,0
STARLINK-3666,2022-025Y,2024-11-28T22:00:00.999936,15.46138566,.0001007,53.2166,327.5012,91.4958,20.2683,0,U,51978,999,565,.22711E-1,.1249874E-1,0
STARLINK-3656,2022-025Z,2024-11-28T16:33:38.136672,15.08842041,.0001725,53.2178,331.0716,90.4950,269.6240,0,U,51979,999,15071,.2342E-4,.85E-6,0
STARLINK-3649,2022-025AA,2024-11-28T22:23:23.060256,15.08832067,.0001056,53.2180,329.9848,103.3574,256.7536,0,U,51980,999,15183,.26019E-3,.3855E-4,0
STARLINK-3635,2022-025AB,2024-11-28T06:50:43.502208,15.08841767,.000198,53.2183,332.8888,98.6517,261.4700,0,U,51981,999,15064,.13397E-3,.1845E-4,0
STARLINK-3650,2022-025AC,2024-11-29T04:00:01.999584,15.53356700,.0001125,53.2140,325.8737,79.8676,264.4231,0,U,51982,999,15192,.1699E-1,.1199363E-1,0
STARLINK-3655,2022-025AD,2024-11-29T00:14:39.957216,15.08836652,.0001442,53.2139,329.6388,94.5992,265.5164,0,U,51983,999,15187,.3511E-4,.271E-5,0
STARLINK-3664,2022-025AE,2024-11-28T23:33:41.089248,15.08826149,.0001127,53.2185,329.8490,93.3321,266.7800,0,U,51984,999,15185,-.39485E-4,-.916E-5,0
STARLINK-3651,2022-025AF,2024-11-28T17:43:55.592832,15.08856365,.0001785,53.2177,330.8622,89.5689,270.5507,0,U,51985,999,15071,.98243E-3,.15389E-3,0
STARLINK-3645,2022-025AG,2024-11-28T10:06:45.980928,15.08839344,.0001456,53.2163,332.1229,91.7908,268.3251,0,U,51986,999,15067,.67305E-4,.783E-5,0
STARLINK-3644,2022-025AH,2024-11-28T23:32:16.126944,15.08816959,.0001622,53.2173,329.7664,85.3810,274.7368,0,U,51987,999,15184,-.35341E-3,-.5905E-4,0
STARLINK-3640,2022-025AJ,2024-11-28T16:44:14.287776,15.08839325,.0001808,53.2184,331.0426,88.3112,271.8087,0,U,51988,999,15071,.33174E-3,.4995E-4,0
STARLINK-3642,2022-025AK,2024-11-28T17:05:26.005920,15.08836570,.0001575,53.2173,330.9748,98.8626,261.2544,0,U,51989,999,15071,.17507E-3,.2499E-4,0
STARLINK-3657,2022-025AL,2024-11-28T22:41:55.730688,15.08853301,.000157,53.2144,309.9233,91.7263,268.3909,0,U,51990,999,15102,-.10122E-3,-.1899E-4,0
STARLINK-3652,2022-025AM,2024-11-28T23:16:22.575936,15.08837744,.0001951,53.2176,329.8205,105.3729,254.7478,0,U,51991,999,15184,.99716E-4,.1299E-4,0
STARLINK-3643,2022-025AN,2024-11-28T16:04:30.076320,15.08827384,.0001962,53.2179,311.1622,93.5170,266.6047,0,U,51992,999,15055,-.13534E-4,-.503E-5,0
STARLINK-3648,2022-025AP,2024-11-28T16:38:55.984992,15.08840599,.0001473,53.2170,331.0567,95.7168,264.3993,0,U,51993,999,15071,.79492E-4,.977E-5,0
STARLINK-3647,2022-025AQ,2024-11-29T04:42:16.699104,15.08838820,.0001412,53.2169,308.8001,92.6686,267.4468,0,U,51994,999,15217,.14237E-3,.1979E-4,0
STARLINK-3636,2022-025AR,2024-11-28T22:36:37.944576,15.08836284,.0001878,53.2170,309.9410,86.3956,273.7250,0,U,51995,999,15211,.86973E-4,.1096E-4,0
STARLINK-3538,2022-025AS,2024-11-29T04:36:58.502592,15.08846578,.000168,53.2164,308.8179,92.0685,268.0499,0,U,51996,999,15216,.2924E-3,.4369E-4,0
STARLINK-3589,2022-025AT,2024-11-29T04:52:52.513248,15.08845202,.0001497,53.2165,308.7679,93.5901,266.5262,0,U,51997,999,15215,.18292E-3,.2625E-4,0
STARLINK-3618,2022-025AU,2024-11-28T23:08:25.438848,15.08836438,.0001297,53.2171,309.8439,94.2446,265.8694,0,U,51998,999,15061,.6541E-4,.753E-5,0
STARLINK-3667,2022-025AV,2024-11-28T11:02:25.937088,15.08841313,.0001536,53.2178,312.0945,96.6809,263.4358,0,U,51999,999,15053,.119E-3,.1606E-4,0
STARLINK-3653,2022-025AW,2024-11-28T22:47:12.642432,15.08847567,.0001753,53.2159,309.8179,118.1236,241.9933,0,U,52000,999,15214,.98018E-4,.1273E-4,0
STARLINK-3659,2022-025AX,2024-11-28T23:04:30.463680,15.08835474,.0001369,53.2158,309.8626,89.9454,270.1695,0,U,52001,999,15214,.11118E-3,.1482E-4,0
