STARLINK-3671           
1 51972U 22025S   24333.66620530 -.00000328  00000+0 -30630-5 0  9999
2 51972  53.0558 322.9445 0002384  93.7363 266.3898 15.06397244150682
STARLINK-3679           
1 51973U 22025T   24333.67355403 -.00000634  00000+0 -23692-4 0  9994
2 51973  53.0540 322.8514 0001563 116.4854 243.6295 15.06403442150683
STARLINK-3672           
1 51974U 22025U   24333.26442557  .00000257  00000+0  36188-4 0  9990
2 51974  53.0551 324.7468 0001756  95.2746 264.8443 15.06398806151704
STARLINK-3674           
1 51975U 22025V   24332.98298725  .00000177  00000+0  30752-4 0  9997
2 51975  53.0543 321.6048 0001552  95.6079 264.5087 15.06396159150645
STARLINK-3663           
1 51976U 22025W   24333.39096262  .00041012  00000+0  21738-2 0  9991
2 51976  53.2142 330.7129 0007570  52.0886 308.0792 15.14994120150696
STARLINK-3660           
1 51977U 22025X   24333.95042167  .00002149  00000+0  15307-3 0  9993
2 51977  53.2155 309.9104 0001505 114.0069 246.1081 15.08839012152119
STARLINK-3666           
1 51978U 22025Y   24333.91667824  .01249874  00000+0  22711-1 0  9997
2 51978  53.2166 327.5012 0001007  91.4958  20.2683 15.46138566  5651
STARLINK-3656           
1 51979U 22025Z   24333.69002473  .00000085  00000+0  23420-4 0  9995
2 51979  53.2178 331.0716 0001725  90.4950 269.6240 15.08842041150718
STARLINK-3649           
1 51980U 22025AA  24333.93290579  .00003855  00000+0  26019-3 0  9994
2 51980  53.2180 329.9848 0001056 103.3574 256.7536 15.08832067151834
STARLINK-3635           
1 51981U 22025AB  24333.28522572  .00001845  00000+0  13397-3 0  9996
2 51981  53.2183 332.8888 0001980  98.6517 261.4700 15.08841767150645
STARLINK-3650           
1 51982U 22025AC  24334.16668981  .01199363  00000+0  16990-1 0  9994
2 51982  53.2140 325.8737 0001125  79.8676 264.4231 15.53356700151924
STARLINK-3655           
1 51983U 22025AD  24334.01018469  .00000271  00000+0  35110-4 0  9995
2 51983  53.2139 329.6388 0001442  94.5992 265.5164 15.08836652151874
STARLINK-3664           
1 51984U 22025AE  24333.98172557 -.00000916  00000+0 -39485-4 0  9997
2 51984  53.2185 329.8490 0001127  93.3321 266.7800 15.08826149151853
STARLINK-3651           
1 51985U 22025AF  24333.73883788  .00015389  00000+0  98243-3 0  9990
2 51985  53.2177 330.8622 0001785  89.5689 270.5507 15.08856365150712
STARLINK-3645           
1 51986U 22025AG  24333.42136552  .00000783  00000+0  67305-4 0  9995
2 51986  53.2163 332.1229 0001456  91.7908 268.3251 15.08839344150674
STARLINK-3644           
1 51987U 22025AH  24333.98074221 -.00005905  00000+0 -35341-3 0  9998
2 51987  53.2173 329.7664 0001622  85.3810 274.7368 15.08816959151844
STARLINK-3640           
1 51988U 22025AJ  24333.69738759  .00004995  00000+0  33174-3 0  9998
2 51988  53.2184 331.0426 0001808  88.3112 271.8087 15.08839325150716
STARLINK-3642           
1 51989U 22025AK  24333.71210655  .00002499  00000+0  17507-3 0  9991
2 51989  53.2173 330.9748 0001575  98.8626 261.2544 15.08836570150717
STARLINK-3657           
1 51990U 22025AL  24333.94578392 -.00001899  00000+0 -10122-3 0  9994
2 51990  53.2144 309.9233 0001570  91.7263 268.3909 15.08853301151025
STARLINK-3652           
1 51991U 22025AM  24333.96970574  .00001299  00000+0  99716-4 0  9994
2 51991  53.2176 329.8205 0001951 105.3729 254.7478 15.08837744151846
STARLINK-3643           
1 51992U 22025AN  24333.66979255 -.00000503  00000+0 -13534-4 0  9990
2 51992  53.2179 311.1622 0001962  93.5170 266.6047 15.08827384150557
STARLINK-3648           
1 51993U 22025AP  24333.69370353  .00000977  00000+0  79492-4 0  9996
2 51993  53.2170 331.0567 0001473  95.7168 264.3993 15.08840599150712
STARLINK-3647           
1 51994U 22025AQ  24334.19602661  .00001979  00000+0  14237-3 0  9991
2 51994  53.2169 308.8001 0001412  92.6686 267.4468 15.08838820152177
STARLINK-3636           
1 51995U 22025AR  24333.94210584  .00001096  00000+0  86973-4 0  9990
2 51995  53.2170 309.9410 0001878  86.3956 273.7250 15.08836284152117
STARLINK-3538           
1 51996U 22025AS  24334.19234378  .00004369  00000+0  29240-3 0  9995
2 51996  53.2164 308.8179 0001680  92.0685 268.0499 15.08846578152169
STARLINK-3589           
1 51997U 22025AT  24334.20338557  .00002625  00000+0  18292-3 0  9990
2 51997  53.2165 308.7679 0001497  93.5901 266.5262 15.08845202152151
STARLINK-3618           
1 51998U 22025AU  24333.96418332  .00000753  00000+0  65410-4 0  9998
2 51998  53.2171 309.8439 0001297  94.2446 265.8694 15.08836438150616
STARLINK-3667           
1 51999U 22025AV  24333.46002242  .00001606  00000+0  11900-3 0  9995
2 51999  53.2178 312.0945 0001536  96.6809 263.4358 15.08841313150537
STARLINK-3653           
1 52000U 22025AW  24333.94945188  .00001273  00000+0  98018-4 0  9993
2 52000  53.2159 309.8179 0001753 118.1236 241.9933 15.08847567152144
STARLINK-3659           
1 52001U 22025AX  24333.96146370  .00001482  00000+0  11118-3 0  9999
2 52001  53.2158 309.8626 0001369  89.9454 270.1695 15.08835474152144
